{
  "links" : {
    "next" : "https://api.nasa.gov/neo/rest/v1/feed?start_date=1997-05-23&end_date=1997-05-23&detailed=true&api_key=t0TVs3DtDT2H8Oy2Zy8m2eVrNsAVKAexjcZXUckd",
    "prev" : "https://api.nasa.gov/neo/rest/v1/feed?start_date=1997-05-21&end_date=1997-05-21&detailed=true&api_key=t0TVs3DtDT2H8Oy2Zy8m2eVrNsAVKAexjcZXUckd",
    "self" : "https://api.nasa.gov/neo/rest/v1/feed?start_date=1997-05-22&end_date=1997-05-22&detailed=true&api_key=t0TVs3DtDT2H8Oy2Zy8m2eVrNsAVKAexjcZXUckd"
  },
  "element_count" : 7,
  "near_earth_objects" : {
    "1997-05-22" : [ {
      "links" : {
        "self" : "https://api.nasa.gov/neo/rest/v1/neo/3519490?api_key=t0TVs3DtDT2H8Oy2Zy8m2eVrNsAVKAexjcZXUckd"
      },
      "neo_reference_id" : "3519490",
      "name" : "(2010 JG)",
      "nasa_jpl_url" : "http://ssd.jpl.nasa.gov/sbdb.cgi?sstr=3519490",
      "absolute_magnitude_h" : 20.9,
      "estimated_diameter" : {
        "kilometers" : {
          "estimated_diameter_min" : 0.1756123185,
          "estimated_diameter_max" : 0.3926810818
        },
        "meters" : {
          "estimated_diameter_min" : 175.6123184804,
          "estimated_diameter_max" : 392.6810818086
        },
        "miles" : {
          "estimated_diameter_min" : 0.1091204019,
          "estimated_diameter_max" : 0.2440006365
        },
        "feet" : {
          "estimated_diameter_min" : 576.1559189633,
          "estimated_diameter_max" : 1288.3238004408
        }
      },
      "is_potentially_hazardous_asteroid" : true,
      "close_approach_data" : [ {
        "close_approach_date" : "1997-05-22",
        "epoch_date_close_approach" : 864284400000,
        "relative_velocity" : {
          "kilometers_per_second" : "12.7146709572",
          "kilometers_per_hour" : "45772.815446082",
          "miles_per_hour" : "28441.4474642613"
        },
        "miss_distance" : {
          "astronomical" : "0.2202479055",
          "lunar" : "85.6764373779",
          "kilometers" : "32948618",
          "miles" : "20473322"
        },
        "orbiting_body" : "Earth"
      } ],
      "orbital_data" : {
        "orbit_id" : "27",
        "orbit_determination_date" : "2017-04-06 08:57:40",
        "orbit_uncertainty" : "1",
        "minimum_orbit_intersection" : ".0287327",
        "jupiter_tisserand_invariant" : "5.203",
        "epoch_osculation" : "2458000.5",
        "eccentricity" : ".3198292493628673",
        "semi_major_axis" : "1.190598312793419",
        "inclination" : "23.30995717448816",
        "ascending_node_longitude" : "49.75422713904511",
        "orbital_period" : "474.5110398148883",
        "perihelion_distance" : ".8098101481200036",
        "perihelion_argument" : "292.0808495992504",
        "aphelion_distance" : "1.571386477466835",
        "perihelion_time" : "2457799.710671111606",
        "mean_anomaly" : "152.33398664027",
        "mean_motion" : ".7586757099275072",
        "equinox" : "J2000"
      }
    }, {
      "links" : {
        "self" : "https://api.nasa.gov/neo/rest/v1/neo/3695816?api_key=t0TVs3DtDT2H8Oy2Zy8m2eVrNsAVKAexjcZXUckd"
      },
      "neo_reference_id" : "3695816",
      "name" : "(2014 UT192)",
      "nasa_jpl_url" : "http://ssd.jpl.nasa.gov/sbdb.cgi?sstr=3695816",
      "absolute_magnitude_h" : 19.6,
      "estimated_diameter" : {
        "kilometers" : {
          "estimated_diameter_min" : 0.3195618867,
          "estimated_diameter_max" : 0.7145621017
        },
        "meters" : {
          "estimated_diameter_min" : 319.5618867213,
          "estimated_diameter_max" : 714.5621017269
        },
        "miles" : {
          "estimated_diameter_min" : 0.1985664891,
          "estimated_diameter_max" : 0.4440081677
        },
        "feet" : {
          "estimated_diameter_min" : 1048.4314204307,
          "estimated_diameter_max" : 2344.3639258298
        }
      },
      "is_potentially_hazardous_asteroid" : false,
      "close_approach_data" : [ {
        "close_approach_date" : "1997-05-22",
        "epoch_date_close_approach" : 864284400000,
        "relative_velocity" : {
          "kilometers_per_second" : "25.91240984",
          "kilometers_per_hour" : "93284.6754241771",
          "miles_per_hour" : "57963.4695712061"
        },
        "miss_distance" : {
          "astronomical" : "0.2876973796",
          "lunar" : "111.914276123",
          "kilometers" : "43038916",
          "miles" : "26743142"
        },
        "orbiting_body" : "Earth"
      } ],
      "orbital_data" : {
        "orbit_id" : "23",
        "orbit_determination_date" : "2017-04-06 08:37:37",
        "orbit_uncertainty" : "2",
        "minimum_orbit_intersection" : ".254285",
        "jupiter_tisserand_invariant" : "4.333",
        "epoch_osculation" : "2458000.5",
        "eccentricity" : ".5440215417699487",
        "semi_major_axis" : "1.431607228971959",
        "inclination" : "37.48130665372541",
        "ascending_node_longitude" : "59.47799735806129",
        "orbital_period" : "625.654036667999",
        "perihelion_distance" : ".6527820570576299",
        "perihelion_argument" : "225.6655113270099",
        "aphelion_distance" : "2.210432400886288",
        "perihelion_time" : "2458124.919181694793",
        "mean_anomaly" : "288.4094678767435",
        "mean_motion" : ".5753978699110235",
        "equinox" : "J2000"
      }
    }, {
      "links" : {
        "self" : "https://api.nasa.gov/neo/rest/v1/neo/3740860?api_key=t0TVs3DtDT2H8Oy2Zy8m2eVrNsAVKAexjcZXUckd"
      },
      "neo_reference_id" : "3740860",
      "name" : "(2016 BU13)",
      "nasa_jpl_url" : "http://ssd.jpl.nasa.gov/sbdb.cgi?sstr=3740860",
      "absolute_magnitude_h" : 20.1,
      "estimated_diameter" : {
        "kilometers" : {
          "estimated_diameter_min" : 0.2538370294,
          "estimated_diameter_max" : 0.5675968529
        },
        "meters" : {
          "estimated_diameter_min" : 253.8370293645,
          "estimated_diameter_max" : 567.5968528656
        },
        "miles" : {
          "estimated_diameter_min" : 0.1577269688,
          "estimated_diameter_max" : 0.3526882241
        },
        "feet" : {
          "estimated_diameter_min" : 832.7986794202,
          "estimated_diameter_max" : 1862.1944587557
        }
      },
      "is_potentially_hazardous_asteroid" : false,
      "close_approach_data" : [ {
        "close_approach_date" : "1997-05-22",
        "epoch_date_close_approach" : 864284400000,
        "relative_velocity" : {
          "kilometers_per_second" : "23.3324099581",
          "kilometers_per_hour" : "83996.6758493278",
          "miles_per_hour" : "52192.2678353781"
        },
        "miss_distance" : {
          "astronomical" : "0.4192793142",
          "lunar" : "163.0996551514",
          "kilometers" : "62723292",
          "miles" : "38974448"
        },
        "orbiting_body" : "Earth"
      } ],
      "orbital_data" : {
        "orbit_id" : "68",
        "orbit_determination_date" : "2017-04-06 08:28:55",
        "orbit_uncertainty" : "4",
        "minimum_orbit_intersection" : ".0661242",
        "jupiter_tisserand_invariant" : "3.444",
        "epoch_osculation" : "2458000.5",
        "eccentricity" : ".5459035455454931",
        "semi_major_axis" : "2.15148970697034",
        "inclination" : "17.87939204787489",
        "ascending_node_longitude" : "223.7168349726958",
        "orbital_period" : "1152.67622602025",
        "perihelion_distance" : ".9769838477305974",
        "perihelion_argument" : "314.2769388212429",
        "aphelion_distance" : "3.325995566210084",
        "perihelion_time" : "2457470.825138250562",
        "mean_anomaly" : "165.4262887750822",
        "mean_motion" : ".3123166695672576",
        "equinox" : "J2000"
      }
    } ]
  }
}